{"type": "FeatureCollection", "features": [ {"type": "Feature", "properties": {"norad_id": 35287, "name": "COSMOS 2251 DEB", "group": "cosmos-2251-debris", "lat": 38.32001939763829, "lon": -69.71957464942962, "alt_km": 756.045937075477, "timestamp": "2025-12-12T03:50:52.814386+00:00", "meta": {"OBJECT_NAME": "COSMOS 2251 DEB", "OBJECT_ID": "1993-036AJR", "EPOCH": "2025-12-11T13:25:38.612352", "MEAN_MOTION": 14.36374891, "ECCENTRICITY": 0.00175152, "INCLINATION": 74.0308, "RA_OF_ASC_NODE": 278.3043, "ARG_OF_PERICENTER": 15.3191, "MEAN_ANOMALY": 159.0765, "EPHEMERIS_TYPE": 0, "CLASSIFICATION_TYPE": "U", "NORAD_CAT_ID": 35287, "ELEMENT_SET_NO": 999, "REV_AT_EPOCH": 86875, "BSTAR": 0.00023838047, "MEAN_MOTION_DOT": 6.73e-06, "MEAN_MOTION_DDOT": 0}, "tle": {"line1": "1 35287U 93036AJR 25345.55947468  .00000673  00000+0  23838-3 0  9995", "line2": "2 35287  74.0308 278.3043 0017515  15.3191 159.0765 14.36374891868758"}}, "geometry": {"type": "Point", "coordinates": [-69.71957464942962, 38.32001939763829]}}, {"type": "Feature", "properties": {"norad_id": 35288, "name": "COSMOS 2251 DEB", "group": "cosmos-2251-debris", "lat": 47.69791175717853, "lon": 177.85498319854088, "alt_km": 684.9658456615534, "timestamp": "2025-12-12T03:50:52.814396+00:00", "meta": {"OBJECT_NAME": "COSMOS 2251 DEB", "OBJECT_ID": "1993-036AJS", "EPOCH": "2025-12-10T08:39:21.633984", "MEAN_MOTION": 14.65413781, "ECCENTRICITY": 0.00395397, "INCLINATION": 73.951, "RA_OF_ASC_NODE": 19.7768, "ARG_OF_PERICENTER": 253.6203, "MEAN_ANOMALY": 106.0616, "EPHEMERIS_TYPE": 0, "CLASSIFICATION_TYPE": "U", "NORAD_CAT_ID": 35288, "ELEMENT_SET_NO": 999, "REV_AT_EPOCH": 87843, "BSTAR": 0.0015164998, "MEAN_MOTION_DOT": 8.275e-05, "MEAN_MOTION_DDOT": 0}, "tle": {"line1": "1 35288U 93036AJS 25344.36066706  .00008275  00000+0  15165-2 0  9990", "line2": "2 35288  73.9510  19.7768 0039539 253.6203 106.0616 14.65413781878431"}}, "geometry": {"type": "Point", "coordinates": [177.85498319854088, 47.69791175717853]}}, {"type": "Feature", "properties": {"norad_id": 35290, "name": "COSMOS 2251 DEB", "group": "cosmos-2251-debris", "lat": 17.186178315116646, "lon": 65.6675376936041, "alt_km": 630.0367381099868, "timestamp": "2025-12-12T03:50:52.814406+00:00", "meta": {"OBJECT_NAME": "COSMOS 2251 DEB", "OBJECT_ID": "1993-036AJU", "EPOCH": "2025-12-11T13:10:12.161568", "MEAN_MOTION": 14.80329109, "ECCENTRICITY": 0.00023731, "INCLINATION": 74.0048, "RA_OF_ASC_NODE": 61.7847, "ARG_OF_PERICENTER": 200.4054, "MEAN_ANOMALY": 159.7028, "EPHEMERIS_TYPE": 0, "CLASSIFICATION_TYPE": "U", "NORAD_CAT_ID": 35290, "ELEMENT_SET_NO": 999, "REV_AT_EPOCH": 87940, "BSTAR": 0.0031349739, "MEAN_MOTION_DOT": 0.00023959, "MEAN_MOTION_DDOT": 0}, "tle": {"line1": "1 35290U 93036AJU 25345.54875187  .00023959  00000+0  31350-2 0  9995", "line2": "2 35290  74.0048  61.7847 0002373 200.4054 159.7028 14.80329109879404"}}, "geometry": {"type": "Point", "coordinates": [65.6675376936041, 17.186178315116646]}}, {"type": "Feature", "properties": {"norad_id": 35432, "name": "COSMOS 2251 DEB", "group": "cosmos-2251-debris", "lat": 19.126539923823707, "lon": -168.92842097723377, "alt_km": 505.89498706079576, "timestamp": "2025-12-12T03:50:52.814416+00:00", "meta": {"OBJECT_NAME": "COSMOS 2251 DEB", "OBJECT_ID": "1993-036AKA", "EPOCH": "2025-12-11T01:54:57.919392", "MEAN_MOTION": 15.22380706, "ECCENTRICITY": 0.00122504, "INCLINATION": 74.0238, "RA_OF_ASC_NODE": 19.0481, "ARG_OF_PERICENTER": 344.223, "MEAN_ANOMALY": 15.8585, "EPHEMERIS_TYPE": 0, "CLASSIFICATION_TYPE": "U", "NORAD_CAT_ID": 35432, "ELEMENT_SET_NO": 999, "REV_AT_EPOCH": 87478, "BSTAR": 0.0073021288, "MEAN_MOTION_DOT": 0.00172981, "MEAN_MOTION_DDOT": 0}, "tle": {"line1": "1 35432U 93036AKA 25345.07983703  .00172981  00000+0  73021-2 0  9996", "line2": "2 35432  74.0238  19.0481 0012250 344.2230  15.8585 15.22380706874784"}}, "geometry": {"type": "Point", "coordinates": [-168.92842097723377, 19.126539923823707]}}, {"type": "Feature", "properties": {"norad_id": 35433, "name": "COSMOS 2251 DEB", "group": "cosmos-2251-debris", "lat": 17.43031548632327, "lon": 154.3512905124852, "alt_km": 786.9546880310718, "timestamp": "2025-12-12T03:50:52.814426+00:00", "meta": {"OBJECT_NAME": "COSMOS 2251 DEB", "OBJECT_ID": "1993-036AKB", "EPOCH": "2025-12-10T18:27:52.031808", "MEAN_MOTION": 14.34742553, "ECCENTRICITY": 0.00254013, "INCLINATION": 74.0339, "RA_OF_ASC_NODE": 342.0559, "ARG_OF_PERICENTER": 37.4572, "MEAN_ANOMALY": 142.4072, "EPHEMERIS_TYPE": 0, "CLASSIFICATION_TYPE": "U", "NORAD_CAT_ID": 35433, "ELEMENT_SET_NO": 999, "REV_AT_EPOCH": 86552, "BSTAR": 0.00041847558, "MEAN_MOTION_DOT": 1.164e-05, "MEAN_MOTION_DDOT": 0}, "tle": {"line1": "1 35433U 93036AKB 25344.76935222  .00001164  00000+0  41848-3 0  9992", "line2": "2 35433  74.0339 342.0559 0025401  37.4572 142.4072 14.34742553865528"}}, "geometry": {"type": "Point", "coordinates": [154.3512905124852, 17.43031548632327]}}, {"type": "Feature", "properties": {"norad_id": 35434, "name": "COSMOS 2251 DEB", "group": "cosmos-2251-debris", "lat": 73.116859949087, "lon": -35.87011952585585, "alt_km": 860.7355840540749, "timestamp": "2025-12-12T03:50:52.814436+00:00", "meta": {"OBJECT_NAME": "COSMOS 2251 DEB", "OBJECT_ID": "1993-036AKC", "EPOCH": "2025-12-11T08:52:23.274048", "MEAN_MOTION": 14.25682257, "ECCENTRICITY": 0.00875072, "INCLINATION": 74.0403, "RA_OF_ASC_NODE": 216.0983, "ARG_OF_PERICENTER": 287.1245, "MEAN_ANOMALY": 72.0334, "EPHEMERIS_TYPE": 0, "CLASSIFICATION_TYPE": "U", "NORAD_CAT_ID": 35434, "ELEMENT_SET_NO": 999, "REV_AT_EPOCH": 86098, "BSTAR": 0.00095825855, "MEAN_MOTION_DOT": 2.34e-05, "MEAN_MOTION_DDOT": 0}, "tle": {"line1": "1 35434U 93036AKC 25345.36971382  .00002340  00000+0  95826-3 0  9999", "line2": "2 35434  74.0403 216.0983 0087507 287.1245  72.0334 14.25682257860986"}}, "geometry": {"type": "Point", "coordinates": [-35.87011952585585, 73.116859949087]}}, {"type": "Feature", "properties": {"norad_id": 35435, "name": "COSMOS 2251 DEB", "group": "cosmos-2251-debris", "lat": 1.6789388775735772, "lon": -75.2744643251091, "alt_km": 631.3275638902824, "timestamp": "2025-12-12T03:50:52.814447+00:00", "meta": {"OBJECT_NAME": "COSMOS 2251 DEB", "OBJECT_ID": "1993-036AKD", "EPOCH": "2025-12-11T01:35:23.280288", "MEAN_MOTION": 14.78375379, "ECCENTRICITY": 0.00082091, "INCLINATION": 74.0093, "RA_OF_ASC_NODE": 107.3593, "ARG_OF_PERICENTER": 201.1094, "MEAN_ANOMALY": 276.4559, "EPHEMERIS_TYPE": 0, "CLASSIFICATION_TYPE": "U", "NORAD_CAT_ID": 35435, "ELEMENT_SET_NO": 999, "REV_AT_EPOCH": 87514, "BSTAR": 0.0035391532, "MEAN_MOTION_DOT": 0.00025849, "MEAN_MOTION_DDOT": 0}, "tle": {"line1": "1 35435U 93036AKD 25345.06624167  .00025849  00000+0  35392-2 0  9993", "line2": "2 35435  74.0093 107.3593 0008209 201.1094 276.4559 14.78375379875146"}}, "geometry": {"type": "Point", "coordinates": [-75.2744643251091, 1.6789388775735772]}}, {"type": "Feature", "properties": {"norad_id": 35439, "name": "COSMOS 2251 DEB", "group": "cosmos-2251-debris", "lat": -68.3226451106952, "lon": 89.60443275931004, "alt_km": 759.6467946198036, "timestamp": "2025-12-12T03:50:52.814456+00:00", "meta": {"OBJECT_NAME": "COSMOS 2251 DEB", "OBJECT_ID": "1993-036AKH", "EPOCH": "2025-12-11T04:55:48.885888", "MEAN_MOTION": 13.92796753, "ECCENTRICITY": 0.02419274, "INCLINATION": 74.0198, "RA_OF_ASC_NODE": 137.3683, "ARG_OF_PERICENTER": 307.011, "MEAN_ANOMALY": 232.6694, "EPHEMERIS_TYPE": 0, "CLASSIFICATION_TYPE": "U", "NORAD_CAT_ID": 35439, "ELEMENT_SET_NO": 999, "REV_AT_EPOCH": 83939, "BSTAR": 0.0020869419, "MEAN_MOTION_DOT": 3.412e-05, "MEAN_MOTION_DDOT": 0}, "tle": {"line1": "1 35439U 93036AKH 25345.20542692  .00003412  00000+0  20869-2 0  9990", "line2": "2 35439  74.0198 137.3683 0241927 307.0110 232.6694 13.92796753839399"}}, "geometry": {"type": "Point", "coordinates": [89.60443275931004, -68.3226451106952]}}, {"type": "Feature", "properties": {"norad_id": 35440, "name": "COSMOS 2251 DEB", "group": "cosmos-2251-debris", "lat": -17.406859024970576, "lon": 33.906470181703895, "alt_km": 712.3226966049106, "timestamp": "2025-12-12T03:50:52.814466+00:00", "meta": {"OBJECT_NAME": "COSMOS 2251 DEB", "OBJECT_ID": "1993-036AKJ", "EPOCH": "2025-12-10T08:26:45.842208", "MEAN_MOTION": 14.68793955, "ECCENTRICITY": 0.00692048, "INCLINATION": 74.0146, "RA_OF_ASC_NODE": 212.2531, "ARG_OF_PERICENTER": 353.6751, "MEAN_ANOMALY": 6.3537, "EPHEMERIS_TYPE": 0, "CLASSIFICATION_TYPE": "U", "NORAD_CAT_ID": 35440, "ELEMENT_SET_NO": 999, "REV_AT_EPOCH": 68730, "BSTAR": 0.0006737672, "MEAN_MOTION_DOT": 4.046e-05, "MEAN_MOTION_DDOT": 0}, "tle": {"line1": "1 35440U 93036AKJ 25344.35191947  .00004046  00000+0  67377-3 0  9990", "line2": "2 35440  74.0146 212.2531 0069204 353.6751   6.3537 14.68793955687302"}}, "geometry": {"type": "Point", "coordinates": [33.906470181703895, -17.406859024970576]}}, {"type": "Feature", "properties": {"norad_id": 35441, "name": "COSMOS 2251 DEB", "group": "cosmos-2251-debris", "lat": 14.515092079109602, "lon": 114.98173135698754, "alt_km": 663.1764597794672, "timestamp": "2025-12-12T03:50:52.814476+00:00", "meta": {"OBJECT_NAME": "COSMOS 2251 DEB", "OBJECT_ID": "1993-036AKK", "EPOCH": "2025-12-11T13:57:45.009216", "MEAN_MOTION": 14.62564221, "ECCENTRICITY": 0.00369307, "INCLINATION": 74.1343, "RA_OF_ASC_NODE": 300.3057, "ARG_OF_PERICENTER": 197.5882, "MEAN_ANOMALY": 162.401, "EPHEMERIS_TYPE": 0, "CLASSIFICATION_TYPE": "U", "NORAD_CAT_ID": 35441, "ELEMENT_SET_NO": 999, "REV_AT_EPOCH": 87413, "BSTAR": 0.0026744253, "MEAN_MOTION_DOT": 0.00013709, "MEAN_MOTION_DDOT": 0}, "tle": {"line1": "1 35441U 93036AKK 25345.58177094  .00013709  00000+0  26744-2 0  9992", "line2": "2 35441  74.1343 300.3057 0036930 197.5882 162.4010 14.62564221874130"}}, "geometry": {"type": "Point", "coordinates": [114.98173135698754, 14.515092079109602]}}]}